ONEWEB-0589             
1 54655U 22166P   26133.07369406  .00000011  00000+0 -58283-5 0  9995
2 54655  87.9239 250.9701 0002814 106.6080 253.5363 13.21826880166903
ONEWEB-0590             
1 54656U 22166Q   26133.02308217 -.00000006  00000+0 -45055-4 0  9991
2 54656  87.9247 250.9669 0001958 114.4940 245.6398 13.21824708166880
ONEWEB-0591             
1 54657U 22166R   26133.03499211  .00000017  00000+0  94683-5 0  9990
2 54657  87.9239 250.9823 0001963 102.6746 257.4608 13.21824295166913
ONEWEB-0592             
1 54658U 22166S   26133.03835679  .00000008  00000+0 -11702-4 0  9994
2 54658  87.9249 250.9565 0001996 100.2248 259.9111 13.21824016166798
ONEWEB-0593             
1 54659U 22166T   26133.06023532 -.00000002  00000+0 -36323-4 0  9996
2 54659  87.9241 250.9661 0002120  98.2121 261.9253 13.21825194166905
ONEWEB-0594             
1 54660U 22166U   26133.08042076 -.00000056  00000+0 -16613-3 0  9992
2 54660  87.9240 250.9793 0001875  99.4338 260.7008 13.21826713166926
ONEWEB-0595             
1 54661U 22166V   26133.05686521 -.00000001  00000+0 -33244-4 0  9999
2 54661  87.9246 250.9616 0001750 102.3665 257.7665 13.21824953166891
ONEWEB-0596             
1 54662U 22166W   26133.03163017 -.00000026  00000+0 -93883-4 0  9990
2 54662  87.9241 250.9805 0001867 101.2999 258.8345 13.21824320166899
ONEWEB-0597             
1 54663U 22166X   26132.86172824 -.00000005  00000+0 -44257-4 0  9995
2 54663  87.9240 251.0181 0002079 100.3964 259.7405 13.21824257166870
ONEWEB-0600             
1 54664U 22166Y   26133.07033040 -.00000036  00000+0 -11819-3 0  9997
2 54664  87.9241 250.9677 0002055  94.5209 265.6159 13.21826398166870
ONEWEB-0601             
1 54665U 22166Z   26132.83482850 -.00000020  00000+0 -79928-4 0  9997
2 54665  87.9238 251.0310 0002229 102.4636 257.6748 13.21826654167038
ONEWEB-0602             
1 54666U 22166AA  26133.25450162  .00000023  00000+0  25106-4 0  9996
2 54666  87.9238 250.9536 0002071  93.4183 266.7188 13.21828748166931
ONEWEB-0603             
1 54667U 22166AB  26132.88191762 -.00000004  00000+0 -40998-4 0  9990
2 54667  87.9250 250.9814 0002071  99.1869 260.9499 13.21824346166817
ONEWEB-0604             
1 54668U 22166AC  26133.24862933  .00000056  00000+0  10490-3 0  9995
2 54668  87.9254 250.9235 0001891  99.8101 260.3246 13.21825059166821
ONEWEB-0605             
1 54669U 22166AD  26132.86340461 -.00000042  00000+0 -13277-3 0  9993
2 54669  87.9242 251.0167 0002404 112.8098 247.3290 13.21828398166842
ONEWEB-0606             
1 54670U 22166AE  26133.03667606 -.00000027  00000+0 -96851-4 0  9991
2 54670  87.9240 250.9949 0001799  99.5509 260.5828 13.21823993166921
ONEWEB-0607             
1 54671U 22166AF  26133.07874056 -.00000031  00000+0 -10705-3 0  9993
2 54671  87.9249 250.9550 0002093  97.7306 262.4066 13.21826507166909
ONEWEB-0608             
1 54672U 22166AG  26133.08545023 -.00000029  00000+0 -10070-3 0  9996
2 54672  87.9251 250.9493 0002466 105.5928 254.5478 13.21823160166913
ONEWEB-0610             
1 54673U 22166AH  26133.06528435 -.00000047  00000+0 -14570-3 0  9992
2 54673  87.9240 250.9710 0002620 100.4140 259.7289 13.21826134166816
ONEWEB-0611             
1 54674U 22166AJ  26133.05854807 -.00000003  00000+0 -39735-4 0  9990
2 54674  87.9240 250.9686 0001844 100.6429 259.4913 13.21825037166809
ONEWEB-0612             
1 54675U 22166AK  26133.07200754 -.00000012  00000+0 -60424-4 0  9998
2 54675  87.9251 250.9574 0002154 101.8230 258.3145 13.21827457166797
ONEWEB-0615             
1 54676U 22166AL  26133.05181472  .00000017  00000+0  97374-5 0  9990
2 54676  87.9241 250.9793 0001769  94.6049 265.5287 13.21823987166801
ONEWEB-0655             
1 54677U 22166AM  26133.02826847 -.00000101  00000+0 -27595-3 0  9992
2 54677  87.9241 250.9859 0002134  94.2731 265.8647 13.21824216166793
ONEWEB-0659             
1 54678U 22166AN  26133.04509590 -.00000029  00000+0 -10260-3 0  9998
2 54678  87.9239 250.9824 0001919 101.7301 258.4049 13.21825738166884
ONEWEB-0685             
1 54679U 22166AP  26132.81814557  .00000039  00000+0  63589-4 0  9997
2 54679  87.9238 251.0207 0002191  96.2923 263.8461 13.21817987166742
ONEWEB-0712             
1 54680U 22166AQ  26133.25340535  .00000028  00000+0  38487-4 0  9995
2 54680  87.9101 235.7099 0002183  88.9213 271.2168 13.16595112167466
ONEWEB-0714             
1 54681U 22166AR  26133.05014453  .00000033  00000+0  48417-4 0  9991
2 54681  87.9238 250.9710 0002091  94.7818 265.3555 13.21826198166898
ONEWEB-0532             
1 55140U 23004A   26133.02677168  .00000037  00000+0  62029-4 0  9998
2 55140  87.9166  12.8550 0001802  94.2062 265.9276 13.17649580162953
ONEWEB-0533             
1 55141U 23004B   26133.00712921  .00000359  00000+0  96180-3 0  9995
2 55141  87.8976 357.6645 0001941  84.2292 275.9058 13.12443691163449
ONEWEB-0541             
1 55142U 23004C   26133.00949878  .00000494  00000+0  13591-2 0  9993
2 55142  87.8923  28.0518 0001664  81.8355 278.2962 13.11414509161336
ONEWEB-0543             
1 55143U 23004D   26133.10892842 -.00000044  00000+0 -14488-3 0  9993
2 55143  87.9168 342.4526 0001860  78.9100 281.2241 13.18686762165072
ONEWEB-0544             
1 55144U 23004E   26133.02629630  .00000079  00000+0  16679-3 0  9998
2 55144  87.9169 342.4688 0001651  81.2681 278.8638 13.18684720165065
ONEWEB-0560             
1 55145U 23004F   26133.01955187  .00000051  00000+0  96175-4 0  9997
2 55145  87.9170 342.4593 0001671  77.5748 282.5571 13.18684366165072
ONEWEB-0565             
1 55146U 23004G   26133.01280399  .00000083  00000+0  17699-3 0  9992
2 55146  87.9160 342.4917 0001409  90.5377 269.5917 13.18684643165060
ONEWEB-0567             
1 55147U 23004H   26133.00606026  .00000113  00000+0  25353-3 0  9991
2 55147  87.9169 342.4742 0001440  84.3919 275.7378 13.18684710165069
ONEWEB-0569             
1 55148U 23004J   26133.04259939 -.00000047  00000+0 -16370-3 0  9990
2 55148  87.8952 327.2196 0001199  60.4542 299.6707 13.13472189165567
ONEWEB-0570             
1 55149U 23004K   26133.07353276  .00000115  00000+0  25779-3 0  9990
2 55149  87.9170 342.4589 0001752 100.0411 260.0919 13.18686670165066
ONEWEB-0571             
1 55150U 23004L   26133.06678570  .00000135  00000+0  30964-3 0  9992
2 55150  87.9171 342.4591 0000586  78.4530 281.6668 13.18687429165070
ONEWEB-0572             
1 55151U 23004M   26133.05714783  .00000059  00000+0  11805-3 0  9997
2 55151  87.9165  12.8500 0001592  83.0277 277.1036 13.17650207162855
ONEWEB-0573             
1 55152U 23004N   26133.06003053  .00000097  00000+0  21236-3 0  9991
2 55152  87.9171 342.4618 0000914  87.9394 272.1843 13.18686064165063
ONEWEB-0588             
1 55153U 23004P   26133.05328713  .00000068  00000+0  13860-3 0  9996
2 55153  87.9170 342.4642 0001658 103.2824 256.8494 13.18686292165060
ONEWEB-0598             
1 55154U 23004Q   26133.14005268  .00000103  00000+0  25621-3 0  9992
2 55154  87.8915  28.0403 0001244  62.1433 297.9821 13.11420442161308
ONEWEB-0599             
1 55155U 23004R   26133.09427175  .00000069  00000+0  14522-3 0  9991
2 55155  87.9166  12.8413 0001812  74.2915 285.8417 13.17649832162861
ONEWEB-0614             
1 55156U 23004S   26133.13494429 -.00000334  00000+0 -97883-3 0  9991
2 55156  87.8918  28.0498 0001923  86.3420 273.7928 13.11418953161242
ONEWEB-0616             
1 55157U 23004T   26133.13646133  .00000034  00000+0  54181-4 0  9993
2 55157  87.9166  12.8356 0002302  59.5003 300.6356 13.17648845163084
ONEWEB-0617             
1 55158U 23004U   26132.97047453 -.00000460  00000+0 -13335-2 0  9994
2 55158  87.8924  28.0718 0001841  93.9017 266.2321 13.11416595161245
ONEWEB-0618             
1 55159U 23004V   26132.87263896  .00002695  00000+0  15108-3 0  9996
2 55159  86.9133 191.9635 0015020  70.5282 289.7579 15.12854254176922
ONEWEB-0619             
1 55160U 23004W   26132.40915941  .00000039  00000+0  68443-4 0  9993
2 55160  87.9176  12.9581 0002208  85.8216 274.3167 13.17648003162883
ONEWEB-0620             
1 55161U 23004X   26133.11798644 -.00000469  00000+0 -13599-2 0  9991
2 55161  87.8919  28.0528 0001532  81.1103 279.0198 13.11415494161234
ONEWEB-0621             
1 55162U 23004Y   26133.14511649  .00000097  00000+0  23734-3 0  9991
2 55162  87.8925  28.0331 0001968  86.4092 273.7261 13.11417642161219
ONEWEB-0622             
1 55163U 23004Z   26133.15020420  .00000591  00000+0  16323-2 0  9999
2 55163  87.8925  28.0341 0001638 102.5010 257.6301 13.11420053161200
ONEWEB-0623             
1 55164U 23004AA  26132.93564557 -.00000010  00000+0 -58819-4 0  9995
2 55164  87.9162  12.8881 0002245 100.6532 259.4853 13.17649419162947
ONEWEB-0624             
1 55165U 23004AB  26133.06252872  .00000252  00000+0  65929-3 0  9990
2 55165  87.8968 357.5754 0001847  88.4060 271.7281 13.12927592163461
ONEWEB-0625             
1 55166U 23004AC  26132.92552780  .00000034  00000+0  53149-4 0  9996
2 55166  87.9167  12.8847 0001939  78.4591 281.6758 13.17648296162934
ONEWEB-0626             
1 55167U 23004AD  26133.06726490 -.00000002  00000+0 -38487-4 0  9999
2 55167  87.9166  12.8564 0001379  77.1962 282.9324 13.17649437162959
ONEWEB-0627             
1 55168U 23004AE  26133.13139469  .00000087  00000+0  19054-3 0  9991
2 55168  87.9166  12.8440 0002090  95.7864 264.3506 13.17650460162966
ONEWEB-0628             
1 55169U 23004AF  26133.10720973 -.00000316  00000+0 -91481-3 0  9996
2 55169  87.8972 357.6271 0002277  97.7665 262.3722 13.12441425163436
ONEWEB-0629             
1 55170U 23004AG  26133.10693119  .00000140  00000+0  32630-3 0  9993
2 55170  87.9163  12.8453 0002137  84.0149 276.1226 13.17648682162962
ONEWEB-0631             
1 55171U 23004AH  26133.04655171 -.00000008  00000+0 -53576-4 0  9991
2 55171  87.9180 342.4280 0001367  98.0296 262.0992 13.18686930165049
